[{"OBJECT_NAME":"STARLINK-4298","OBJECT_ID":"2022-083AX","EPOCH":"2025-08-10T14:48:10.149696","MEAN_MOTION":15.08831887,"ECCENTRICITY":0.0001384,"INCLINATION":53.2191,"RA_OF_ASC_NODE":6.6537,"ARG_OF_PERICENTER":92.8935,"MEAN_ANOMALY":267.2216,"EPHEMERIS_TYPE":0,"CLASSIFICATION_TYPE":"U","NORAD_CAT_ID":53177,"ELEMENT_SET_NO":999,"REV_AT_EPOCH":16983,"BSTAR":-2.5192e-5,"MEAN_MOTION_DOT":-6.89e-6,"MEAN_MOTION_DDOT":0},{"OBJECT_NAME":"STARLINK-4280","OBJECT_ID":"2022-083AY","EPOCH":"2025-08-10T04:16:53.276160","MEAN_MOTION":15.0884161,"ECCENTRICITY":0.0001271,"INCLINATION":53.218,"RA_OF_ASC_NODE":33.633,"ARG_OF_PERICENTER":89.866,"MEAN_ANOMALY":270.2477,"EPHEMERIS_TYPE":0,"CLASSIFICATION_TYPE":"U","NORAD_CAT_ID":53178,"ELEMENT_SET_NO":999,"REV_AT_EPOCH":16941,"BSTAR":7.3991e-5,"MEAN_MOTION_DOT":8.9e-6,"MEAN_MOTION_DDOT":0},{"OBJECT_NAME":"STARLINK-4276","OBJECT_ID":"2022-083AZ","EPOCH":"2025-08-10T15:13:55.962336","MEAN_MOTION":15.08831952,"ECCENTRICITY":0.0001091,"INCLINATION":53.2165,"RA_OF_ASC_NODE":351.1808,"ARG_OF_PERICENTER":83.266,"MEAN_ANOMALY":276.8456,"EPHEMERIS_TYPE":0,"CLASSIFICATION_TYPE":"U","NORAD_CAT_ID":53179,"ELEMENT_SET_NO":999,"REV_AT_EPOCH":17005,"BSTAR":-4.3148e-5,"MEAN_MOTION_DOT":-9.74e-6,"MEAN_MOTION_DDOT":0},{"OBJECT_NAME":"STARLINK-4258","OBJECT_ID":"2022-083BA","EPOCH":"2025-08-10T14:15:41.545440","MEAN_MOTION":15.08830128,"ECCENTRICITY":0.0001231,"INCLINATION":53.2191,"RA_OF_ASC_NODE":351.6378,"ARG_OF_PERICENTER":86.8542,"MEAN_ANOMALY":273.2591,"EPHEMERIS_TYPE":0,"CLASSIFICATION_TYPE":"U","NORAD_CAT_ID":53180,"ELEMENT_SET_NO":999,"REV_AT_EPOCH":17004,"BSTAR":-4.2718e-5,"MEAN_MOTION_DOT":-9.67e-6,"MEAN_MOTION_DDOT":0},{"OBJECT_NAME":"STARLINK-4278","OBJECT_ID":"2022-083BC","EPOCH":"2025-08-10T14:42:52.071552","MEAN_MOTION":15.08832018,"ECCENTRICITY":0.0001423,"INCLINATION":53.2203,"RA_OF_ASC_NODE":6.67,"ARG_OF_PERICENTER":104.6202,"MEAN_ANOMALY":255.4948,"EPHEMERIS_TYPE":0,"CLASSIFICATION_TYPE":"U","NORAD_CAT_ID":53182,"ELEMENT_SET_NO":999,"REV_AT_EPOCH":16983,"BSTAR":-3.1372e-5,"MEAN_MOTION_DOT":-7.87e-6,"MEAN_MOTION_DDOT":0},{"OBJECT_NAME":"STARLINK-4268","OBJECT_ID":"2022-083BD","EPOCH":"2025-08-10T14:54:46.942560","MEAN_MOTION":15.0882951,"ECCENTRICITY":0.0001332,"INCLINATION":53.2196,"RA_OF_ASC_NODE":356.5599,"ARG_OF_PERICENTER":83.4038,"MEAN_ANOMALY":276.7106,"EPHEMERIS_TYPE":0,"CLASSIFICATION_TYPE":"U","NORAD_CAT_ID":53183,"ELEMENT_SET_NO":999,"REV_AT_EPOCH":16997,"BSTAR":-5.246e-5,"MEAN_MOTION_DOT":-1.122e-5,"MEAN_MOTION_DDOT":0},{"OBJECT_NAME":"STARLINK-4257","OBJECT_ID":"2022-083BE","EPOCH":"2025-08-10T15:08:37.726944","MEAN_MOTION":15.08836003,"ECCENTRICITY":0.0001177,"INCLINATION":53.2167,"RA_OF_ASC_NODE":351.1837,"ARG_OF_PERICENTER":80.3365,"MEAN_ANOMALY":279.776,"EPHEMERIS_TYPE":0,"CLASSIFICATION_TYPE":"U","NORAD_CAT_ID":53184,"ELEMENT_SET_NO":999,"REV_AT_EPOCH":17006,"BSTAR":-3.0789e-5,"MEAN_MOTION_DOT":-7.78e-6,"MEAN_MOTION_DDOT":0},{"OBJECT_NAME":"STARLINK-4391","OBJECT_ID":"2022-084A","EPOCH":"2025-08-10T14:00:01.000224","MEAN_MOTION":15.01225378,"ECCENTRICITY":0.0002868,"INCLINATION":97.6518,"RA_OF_ASC_NODE":283.4096,"ARG_OF_PERICENTER":65.8457,"MEAN_ANOMALY":30.7247,"EPHEMERIS_TYPE":0,"CLASSIFICATION_TYPE":"U","NORAD_CAT_ID":53189,"ELEMENT_SET_NO":999,"REV_AT_EPOCH":582,"BSTAR":0.005483,"MEAN_MOTION_DOT":0.00071017,"MEAN_MOTION_DDOT":0},{"OBJECT_NAME":"STARLINK-4332","OBJECT_ID":"2022-084B","EPOCH":"2025-08-10T14:13:57.012672","MEAN_MOTION":15.01260537,"ECCENTRICITY":0.0001822,"INCLINATION":97.6577,"RA_OF_ASC_NODE":283.4198,"ARG_OF_PERICENTER":87.9093,"MEAN_ANOMALY":272.2339,"EPHEMERIS_TYPE":0,"CLASSIFICATION_TYPE":"U","NORAD_CAT_ID":53190,"ELEMENT_SET_NO":999,"REV_AT_EPOCH":16831,"BSTAR":7.4386e-5,"MEAN_MOTION_DOT":8.97e-6,"MEAN_MOTION_DDOT":0},{"OBJECT_NAME":"STARLINK-4369","OBJECT_ID":"2022-084C","EPOCH":"2025-08-10T14:53:56.703552","MEAN_MOTION":15.01260166,"ECCENTRICITY":0.0001169,"INCLINATION":97.654,"RA_OF_ASC_NODE":283.4506,"ARG_OF_PERICENTER":89.236,"MEAN_ANOMALY":270.8998,"EPHEMERIS_TYPE":0,"CLASSIFICATION_TYPE":"U","NORAD_CAT_ID":53191,"ELEMENT_SET_NO":999,"REV_AT_EPOCH":16764,"BSTAR":8.4066e-5,"MEAN_MOTION_DOT":1.021e-5,"MEAN_MOTION_DDOT":0},{"OBJECT_NAME":"STARLINK-4375","OBJECT_ID":"2022-084D","EPOCH":"2025-08-10T14:51:15.955488","MEAN_MOTION":15.01259397,"ECCENTRICITY":9.6e-5,"INCLINATION":97.6541,"RA_OF_ASC_NODE":283.4477,"ARG_OF_PERICENTER":174.0194,"MEAN_ANOMALY":186.1042,"EPHEMERIS_TYPE":0,"CLASSIFICATION_TYPE":"U","NORAD_CAT_ID":53192,"ELEMENT_SET_NO":999,"REV_AT_EPOCH":16831,"BSTAR":-2.221e-5,"MEAN_MOTION_DOT":-3.44e-6,"MEAN_MOTION_DDOT":0},{"OBJECT_NAME":"STARLINK-4351","OBJECT_ID":"2022-084E","EPOCH":"2025-08-10T10:11:19.503456","MEAN_MOTION":15.01261854,"ECCENTRICITY":0.000123,"INCLINATION":97.6533,"RA_OF_ASC_NODE":283.2598,"ARG_OF_PERICENTER":94.8991,"MEAN_ANOMALY":265.2374,"EPHEMERIS_TYPE":0,"CLASSIFICATION_TYPE":"U","NORAD_CAT_ID":53193,"ELEMENT_SET_NO":999,"REV_AT_EPOCH":16863,"BSTAR":-1.192e-6,"MEAN_MOTION_DOT":-7.4e-7,"MEAN_MOTION_DDOT":0},{"OBJECT_NAME":"STARLINK-4382","OBJECT_ID":"2022-084F","EPOCH":"2025-08-10T14:56:36.221280","MEAN_MOTION":15.01262939,"ECCENTRICITY":0.0001232,"INCLINATION":97.654,"RA_OF_ASC_NODE":283.4537,"ARG_OF_PERICENTER":101.3583,"MEAN_ANOMALY":258.7779,"EPHEMERIS_TYPE":0,"CLASSIFICATION_TYPE":"U","NORAD_CAT_ID":53194,"ELEMENT_SET_NO":999,"REV_AT_EPOCH":16764,"BSTAR":1.103e-5,"MEAN_MOTION_DOT":8.3e-7,"MEAN_MOTION_DDOT":0},{"OBJECT_NAME":"STARLINK-4404","OBJECT_ID":"2022-084G","EPOCH":"2025-08-10T14:00:01.000224","MEAN_MOTION":15.23439391,"ECCENTRICITY":0.0001424,"INCLINATION":97.655,"RA_OF_ASC_NODE":284.1757,"ARG_OF_PERICENTER":79.9346,"MEAN_ANOMALY":77.7525,"EPHEMERIS_TYPE":0,"CLASSIFICATION_TYPE":"U","NORAD_CAT_ID":53195,"ELEMENT_SET_NO":999,"REV_AT_EPOCH":561,"BSTAR":0.020469,"MEAN_MOTION_DOT":0.00517241,"MEAN_MOTION_DDOT":0},{"OBJECT_NAME":"STARLINK-4407","OBJECT_ID":"2022-084H","EPOCH":"2025-08-10T14:00:01.000224","MEAN_MOTION":15.25401496,"ECCENTRICITY":0.0001346,"INCLINATION":97.6553,"RA_OF_ASC_NODE":284.1895,"ARG_OF_PERICENTER":79.2734,"MEAN_ANOMALY":95.8115,"EPHEMERIS_TYPE":0,"CLASSIFICATION_TYPE":"U","NORAD_CAT_ID":53196,"ELEMENT_SET_NO":999,"REV_AT_EPOCH":565,"BSTAR":0.01978,"MEAN_MOTION_DOT":0.00530548,"MEAN_MOTION_DDOT":0},{"OBJECT_NAME":"STARLINK-4403","OBJECT_ID":"2022-084J","EPOCH":"2025-08-10T14:43:16.538304","MEAN_MOTION":15.01255979,"ECCENTRICITY":0.0002884,"INCLINATION":97.6541,"RA_OF_ASC_NODE":283.4408,"ARG_OF_PERICENTER":170.6479,"MEAN_ANOMALY":189.4799,"EPHEMERIS_TYPE":0,"CLASSIFICATION_TYPE":"U","NORAD_CAT_ID":53197,"ELEMENT_SET_NO":999,"REV_AT_EPOCH":16764,"BSTAR":-2.841e-5,"MEAN_MOTION_DOT":-4.24e-6,"MEAN_MOTION_DDOT":0},{"OBJECT_NAME":"STARLINK-4385","OBJECT_ID":"2022-084K","EPOCH":"2025-08-10T14:48:34.514496","MEAN_MOTION":15.01268924,"ECCENTRICITY":0.0001639,"INCLINATION":97.6548,"RA_OF_ASC_NODE":283.4437,"ARG_OF_PERICENTER":192.455,"MEAN_ANOMALY":167.6634,"EPHEMERIS_TYPE":0,"CLASSIFICATION_TYPE":"U","NORAD_CAT_ID":53198,"ELEMENT_SET_NO":999,"REV_AT_EPOCH":16830,"BSTAR":0.00010212,"MEAN_MOTION_DOT":1.253e-5,"MEAN_MOTION_DDOT":0},{"OBJECT_NAME":"STARLINK-4395","OBJECT_ID":"2022-084L","EPOCH":"2025-08-10T14:45:56.473344","MEAN_MOTION":15.01259656,"ECCENTRICITY":0.000125,"INCLINATION":97.6544,"RA_OF_ASC_NODE":283.4344,"ARG_OF_PERICENTER":173.8907,"MEAN_ANOMALY":186.2332,"EPHEMERIS_TYPE":0,"CLASSIFICATION_TYPE":"U","NORAD_CAT_ID":53199,"ELEMENT_SET_NO":999,"REV_AT_EPOCH":16764,"BSTAR":3.3024e-5,"MEAN_MOTION_DOT":3.65e-6,"MEAN_MOTION_DDOT":0},{"OBJECT_NAME":"STARLINK-4417","OBJECT_ID":"2022-084M","EPOCH":"2025-08-10T14:40:57.515520","MEAN_MOTION":15.01258424,"ECCENTRICITY":0.0001948,"INCLINATION":97.6542,"RA_OF_ASC_NODE":283.4466,"ARG_OF_PERICENTER":164.5873,"MEAN_ANOMALY":195.5411,"EPHEMERIS_TYPE":0,"CLASSIFICATION_TYPE":"U","NORAD_CAT_ID":53200,"ELEMENT_SET_NO":999,"REV_AT_EPOCH":16830,"BSTAR":2.0276e-5,"MEAN_MOTION_DOT":2.01e-6,"MEAN_MOTION_DDOT":0},{"OBJECT_NAME":"STARLINK-4405","OBJECT_ID":"2022-084N","EPOCH":"2025-08-10T14:00:01.000224","MEAN_MOTION":15.01228812,"ECCENTRICITY":0.0002393,"INCLINATION":97.6546,"RA_OF_ASC_NODE":283.4228,"ARG_OF_PERICENTER":138.7094,"MEAN_ANOMALY":117.8644,"EPHEMERIS_TYPE":0,"CLASSIFICATION_TYPE":"U","NORAD_CAT_ID":53201,"ELEMENT_SET_NO":999,"REV_AT_EPOCH":582,"BSTAR":0.0056445,"MEAN_MOTION_DOT":0.00073138,"MEAN_MOTION_DDOT":0},{"OBJECT_NAME":"STARLINK-4411","OBJECT_ID":"2022-084P","EPOCH":"2025-08-10T14:35:16.632960","MEAN_MOTION":15.01256944,"ECCENTRICITY":0.0003745,"INCLINATION":97.6548,"RA_OF_ASC_NODE":283.4426,"ARG_OF_PERICENTER":144.4692,"MEAN_ANOMALY":215.6782,"EPHEMERIS_TYPE":0,"CLASSIFICATION_TYPE":"U","NORAD_CAT_ID":53202,"ELEMENT_SET_NO":999,"REV_AT_EPOCH":16764,"BSTAR":-2.751e-5,"MEAN_MOTION_DOT":-4.12e-6,"MEAN_MOTION_DDOT":0},{"OBJECT_NAME":"STARLINK-4409","OBJECT_ID":"2022-084Q","EPOCH":"2025-08-10T14:29:56.726592","MEAN_MOTION":15.01256327,"ECCENTRICITY":0.0002973,"INCLINATION":97.6551,"RA_OF_ASC_NODE":283.4303,"ARG_OF_PERICENTER":160.0903,"MEAN_ANOMALY":200.0438,"EPHEMERIS_TYPE":0,"CLASSIFICATION_TYPE":"U","NORAD_CAT_ID":53203,"ELEMENT_SET_NO":999,"REV_AT_EPOCH":16764,"BSTAR":-2.5495e-5,"MEAN_MOTION_DOT":-3.87e-6,"MEAN_MOTION_DDOT":0},{"OBJECT_NAME":"STARLINK-4410","OBJECT_ID":"2022-084R","EPOCH":"2025-08-10T14:35:37.173696","MEAN_MOTION":15.01295987,"ECCENTRICITY":0.0003568,"INCLINATION":97.6589,"RA_OF_ASC_NODE":283.4376,"ARG_OF_PERICENTER":149.9255,"MEAN_ANOMALY":210.2175,"EPHEMERIS_TYPE":0,"CLASSIFICATION_TYPE":"U","NORAD_CAT_ID":53204,"ELEMENT_SET_NO":999,"REV_AT_EPOCH":16830,"BSTAR":0.0011237,"MEAN_MOTION_DOT":0.00014419,"MEAN_MOTION_DDOT":0}]
